TEVEL2-4                
1 63213U 25052D   26068.69417973  .00020990  00000+0  70363-3 0  9998
2 63213  97.4009 325.1237 0004733  95.3468 264.8313 15.30925813 54879
STARLINK-35322          
1 66332U 25253P   26068.41128703  .00030146  00000+0  11008-2 0  9990
2 66332  42.9972 213.9277 0002747 285.6819  74.3729 15.27571257 20203
